start=new Date('2021-12-22T00:00:00.000Z').valueOf();
sats=[{"CENTER_NAME":"EARTH","RA_OF_ASC_NODE":"303.5495","RCS_SIZE":"LARGE","MEAN_MOTION_DOT":"-0.00656689","APOAPSIS":"385.161","LAUNCH_DATE":"2021-11-13","TIME_SYSTEM":"UTC","INCLINATION":"53.2176","BSTAR":"-0.00826130000000","PERIOD":"92.239","MEAN_MOTION_DDOT":"0.0000000000000","TLE_LINE1":"1 49412U 21104E   21355.91667824 -.00656689  00000-0 -82613-2 0  9991","REF_FRAME":"TEME","OBJECT_TYPE":"PAYLOAD","DECAY_DATE":null,"REV_AT_EPOCH":"369","OBJECT_NAME":"STARLINK-3144","GP_ID":"192179736","ARG_OF_PERICENTER":"67.0213","MEAN_ELEMENT_THEORY":"SGP4","EPOCH":"2021-12-21T22:00:00.999936","TLE_LINE2":"2 49412  53.2176 303.5495 0001301  67.0213  98.7632 15.61169036  3690","SITE":"AFETR","MEAN_ANOMALY":"98.7632","EPHEMERIS_TYPE":"0","ELEMENT_SET_NO":"999","PERIAPSIS":"383.401","NORAD_CAT_ID":"49412","MEAN_MOTION":"15.61169036","OBJECT_ID":"2021-104E","CLASSIFICATION_TYPE":"U","SEMIMAJOR_AXIS":"6762.416","FILE":"3246784","ECCENTRICITY":"0.00013010","COUNTRY_CODE":"US"},{"MEAN_ANOMALY":"12.8322","TLE_LINE2":"2 49413  53.2195 302.9992 0001827  37.2147  12.8322 15.73116632  3695","SITE":"AFETR","EPOCH":"2021-12-21T22:00:00.999936","MEAN_ELEMENT_THEORY":"SGP4","GP_ID":"192180374","ARG_OF_PERICENTER":"37.2147","MEAN_MOTION":"15.73116632","OBJECT_ID":"2021-104F","PERIAPSIS":"348.769","NORAD_CAT_ID":"49413","ELEMENT_SET_NO":"999","EPHEMERIS_TYPE":"0","ECCENTRICITY":"0.00018270","SEMIMAJOR_AXIS":"6728.133","FILE":"3246784","CLASSIFICATION_TYPE":"U","COUNTRY_CODE":"US","APOAPSIS":"351.227","MEAN_MOTION_DOT":"0.00022428","RCS_SIZE":"LARGE","CENTER_NAME":"EARTH","RA_OF_ASC_NODE":"302.9992","INCLINATION":"53.2195","BSTAR":"0.00016437000000","LAUNCH_DATE":"2021-11-13","TIME_SYSTEM":"UTC","REF_FRAME":"TEME","OBJECT_TYPE":"PAYLOAD","TLE_LINE1":"1 49413U 21104F   21355.91667824  .00022428  00000-0  16437-3 0  9990","PERIOD":"91.538","MEAN_MOTION_DDOT":"0.0000000000000","REV_AT_EPOCH":"369","OBJECT_NAME":"STARLINK-3157","DECAY_DATE":null},{"MEAN_MOTION_DOT":"-0.00656660","APOAPSIS":"390.749","RA_OF_ASC_NODE":"303.5451","CENTER_NAME":"EARTH","RCS_SIZE":"LARGE","TIME_SYSTEM":"UTC","LAUNCH_DATE":"2021-11-13","BSTAR":"-0.00890360000000","INCLINATION":"53.2176","OBJECT_TYPE":"PAYLOAD","REF_FRAME":"TEME","MEAN_MOTION_DDOT":"0.0000000000000","PERIOD":"92.354","TLE_LINE1":"1 49414U 21104G   21355.91667824 -.00656660  00000-0 -89036-2 0  9998","OBJECT_NAME":"STARLINK-3146","REV_AT_EPOCH":"369","DECAY_DATE":null,"SITE":"AFETR","TLE_LINE2":"2 49414  53.2176 303.5451 0001254  58.6403  43.9565 15.59225031  3690","MEAN_ANOMALY":"43.9565","ARG_OF_PERICENTER":"58.6403","GP_ID":"192180587","MEAN_ELEMENT_THEORY":"SGP4","EPOCH":"2021-12-21T22:00:00.999936","NORAD_CAT_ID":"49414","PERIAPSIS":"389.052","OBJECT_ID":"2021-104G","MEAN_MOTION":"15.59225031","EPHEMERIS_TYPE":"0","ELEMENT_SET_NO":"999","ECCENTRICITY":"0.00012540","CLASSIFICATION_TYPE":"U","FILE":"3246784","SEMIMAJOR_AXIS":"6768.036","COUNTRY_CODE":"US"},{"APOAPSIS":"351.362","MEAN_MOTION_DOT":"0.00036859","RCS_SIZE":"LARGE","CENTER_NAME":"EARTH","RA_OF_ASC_NODE":"302.9939","INCLINATION":"53.2189","BSTAR":"0.00026657000000","LAUNCH_DATE":"2021-11-13","TIME_SYSTEM":"UTC","REF_FRAME":"TEME","OBJECT_TYPE":"PAYLOAD","TLE_LINE1":"1 49415U 21104H   21355.91667824  .00036859  00000-0  26657-3 0  9990","PERIOD":"91.537","MEAN_MOTION_DDOT":"0.0000000000000","REV_AT_EPOCH":"369","OBJECT_NAME":"STARLINK-3159","DECAY_DATE":null,"MEAN_ANOMALY":"16.3999","TLE_LINE2":"2 49415  53.2189 302.9939 0002121  34.5686  16.3999 15.73138629  3696","SITE":"AFETR","MEAN_ELEMENT_THEORY":"SGP4","EPOCH":"2021-12-21T22:00:00.999936","GP_ID":"192179951","ARG_OF_PERICENTER":"34.5686","MEAN_MOTION":"15.73138629","OBJECT_ID":"2021-104H","PERIAPSIS":"348.508","NORAD_CAT_ID":"49415","ELEMENT_SET_NO":"999","EPHEMERIS_TYPE":"0","ECCENTRICITY":"0.00021210","SEMIMAJOR_AXIS":"6728.070","FILE":"3246784","CLASSIFICATION_TYPE":"U","COUNTRY_CODE":"US"},{"RCS_SIZE":"LARGE","RA_OF_ASC_NODE":"303.5418","CENTER_NAME":"EARTH","APOAPSIS":"390.187","MEAN_MOTION_DOT":"-0.00656353","BSTAR":"-0.00882270000000","INCLINATION":"53.2176","TIME_SYSTEM":"UTC","LAUNCH_DATE":"2021-11-13","TLE_LINE1":"1 49416U 21104J   21355.91667824 -.00656353  00000-0 -88227-2 0  9990","MEAN_MOTION_DDOT":"0.0000000000000","PERIOD":"92.340","OBJECT_TYPE":"PAYLOAD","REF_FRAME":"TEME","DECAY_DATE":null,"OBJECT_NAME":"STARLINK-3133","REV_AT_EPOCH":"733","EPOCH":"2021-12-21T22:00:00.999936","MEAN_ELEMENT_THEORY":"SGP4","ARG_OF_PERICENTER":"51.1598","GP_ID":"192154707","MEAN_ANOMALY":"62.2606","SITE":"AFETR","TLE_LINE2":"2 49416  53.2176 303.5418 0001382  51.1598  62.2606 15.59449475  7335","ELEMENT_SET_NO":"999","EPHEMERIS_TYPE":"0","OBJECT_ID":"2021-104J","MEAN_MOTION":"15.59449475","NORAD_CAT_ID":"49416","PERIAPSIS":"388.316","FILE":"3246678","SEMIMAJOR_AXIS":"6767.386","CLASSIFICATION_TYPE":"U","ECCENTRICITY":"0.00013820","COUNTRY_CODE":"US"},{"SEMIMAJOR_AXIS":"6727.833","FILE":"3246784","CLASSIFICATION_TYPE":"U","ECCENTRICITY":"0.00071200","COUNTRY_CODE":"US","EPOCH":"2021-12-21T14:09:26.267904","MEAN_ELEMENT_THEORY":"SGP4","GP_ID":"192180798","ARG_OF_PERICENTER":"308.3872","MEAN_ANOMALY":"51.6508","TLE_LINE2":"2 49417  53.2184 304.6058 0007120 308.3872  51.6508 15.73221913  6181","SITE":"AFETR","ELEMENT_SET_NO":"999","EPHEMERIS_TYPE":"0","MEAN_MOTION":"15.73221913","OBJECT_ID":"2021-104K","PERIAPSIS":"344.907","NORAD_CAT_ID":"49417","TLE_LINE1":"1 49417U 21104K   21355.58988736  .00020846  00000-0  15228-3 0  9994","PERIOD":"91.532","MEAN_MOTION_DDOT":"0.0000000000000","REF_FRAME":"TEME","OBJECT_TYPE":"PAYLOAD","DECAY_DATE":null,"REV_AT_EPOCH":"618","OBJECT_NAME":"STARLINK-3154","RCS_SIZE":"LARGE","CENTER_NAME":"EARTH","RA_OF_ASC_NODE":"304.6058","APOAPSIS":"354.488","MEAN_MOTION_DOT":"0.00020846","INCLINATION":"53.2184","BSTAR":"0.00015228000000","LAUNCH_DATE":"2021-11-13","TIME_SYSTEM":"UTC"},{"MEAN_MOTION_DOT":"-0.00656238","APOAPSIS":"389.859","CENTER_NAME":"EARTH","RA_OF_ASC_NODE":"303.5378","RCS_SIZE":"LARGE","LAUNCH_DATE":"2021-11-13","TIME_SYSTEM":"UTC","INCLINATION":"53.2176","BSTAR":"-0.00878610000000","REF_FRAME":"TEME","OBJECT_TYPE":"PAYLOAD","PERIOD":"92.334","MEAN_MOTION_DDOT":"0.0000000000000","TLE_LINE1":"1 49418U 21104L   21355.91667824 -.00656238  00000-0 -87861-2 0  9997","REV_AT_EPOCH":"733","OBJECT_NAME":"STARLINK-3111","DECAY_DATE":null,"TLE_LINE2":"2 49418  53.2176 303.5378 0001342  54.5700  65.3207 15.59553265  7334","SITE":"AFETR","MEAN_ANOMALY":"65.3207","GP_ID":"192154246","ARG_OF_PERICENTER":"54.5700","EPOCH":"2021-12-21T22:00:00.999936","MEAN_ELEMENT_THEORY":"SGP4","PERIAPSIS":"388.043","NORAD_CAT_ID":"49418","MEAN_MOTION":"15.59553265","OBJECT_ID":"2021-104L","EPHEMERIS_TYPE":"0","ELEMENT_SET_NO":"999","ECCENTRICITY":"0.00013420","CLASSIFICATION_TYPE":"U","SEMIMAJOR_AXIS":"6767.086","FILE":"3246681","COUNTRY_CODE":"US"},{"DECAY_DATE":null,"REV_AT_EPOCH":"731","OBJECT_NAME":"STARLINK-3120","TLE_LINE1":"1 49419U 21104M   21355.91667824 -.00656196  00000-0 -86714-2 0  9997","PERIOD":"92.314","MEAN_MOTION_DDOT":"0.0000000000000","REF_FRAME":"TEME","OBJECT_TYPE":"PAYLOAD","INCLINATION":"53.2176","BSTAR":"-0.00867140000000","LAUNCH_DATE":"2021-11-13","TIME_SYSTEM":"UTC","RCS_SIZE":"LARGE","CENTER_NAME":"EARTH","RA_OF_ASC_NODE":"303.5333","APOAPSIS":"388.954","MEAN_MOTION_DOT":"-0.00656196","COUNTRY_CODE":"US","SEMIMAJOR_AXIS":"6766.103","FILE":"3246699","CLASSIFICATION_TYPE":"U","ECCENTRICITY":"0.00014570","ELEMENT_SET_NO":"999","EPHEMERIS_TYPE":"0","MEAN_MOTION":"15.59892993","OBJECT_ID":"2021-104M","PERIAPSIS":"386.983","NORAD_CAT_ID":"49419","EPOCH":"2021-12-21T22:00:00.999936","MEAN_ELEMENT_THEORY":"SGP4","GP_ID":"192154266","ARG_OF_PERICENTER":"48.8628","MEAN_ANOMALY":"86.5590","TLE_LINE2":"2 49419  53.2176 303.5333 0001457  48.8628  86.5590 15.59892993  7310","SITE":"AFETR"},{"COUNTRY_CODE":"US","ECCENTRICITY":"0.00014010","CLASSIFICATION_TYPE":"U","SEMIMAJOR_AXIS":"6766.753","FILE":"3246784","PERIAPSIS":"387.670","NORAD_CAT_ID":"49420","MEAN_MOTION":"15.59668352","OBJECT_ID":"2021-104N","EPHEMERIS_TYPE":"0","ELEMENT_SET_NO":"999","TLE_LINE2":"2 49420  53.2175 303.5368 0001401  50.5801  74.2741 15.59668352  3690","SITE":"AFETR","MEAN_ANOMALY":"74.2741","GP_ID":"192179737","ARG_OF_PERICENTER":"50.5801","EPOCH":"2021-12-21T22:00:00.999936","MEAN_ELEMENT_THEORY":"SGP4","REV_AT_EPOCH":"369","OBJECT_NAME":"STARLINK-3110","DECAY_DATE":null,"REF_FRAME":"TEME","OBJECT_TYPE":"PAYLOAD","PERIOD":"92.327","MEAN_MOTION_DDOT":"0.0000000000000","TLE_LINE1":"1 49420U 21104N   21355.91667824 -.00656185  00000-0 -87465-2 0  9991","LAUNCH_DATE":"2021-11-13","TIME_SYSTEM":"UTC","INCLINATION":"53.2175","BSTAR":"-0.00874650000000","MEAN_MOTION_DOT":"-0.00656185","APOAPSIS":"389.566","CENTER_NAME":"EARTH","RA_OF_ASC_NODE":"303.5368","RCS_SIZE":"LARGE"},{"MEAN_MOTION_DOT":"-0.00656196","APOAPSIS":"388.233","RA_OF_ASC_NODE":"303.5306","CENTER_NAME":"EARTH","RCS_SIZE":"LARGE","TIME_SYSTEM":"UTC","LAUNCH_DATE":"2021-11-13","BSTAR":"-0.00859510000000","INCLINATION":"53.2176","OBJECT_TYPE":"PAYLOAD","REF_FRAME":"TEME","MEAN_MOTION_DDOT":"0.0000000000000","PERIOD":"92.300","TLE_LINE1":"1 49421U 21104P   21355.91667824 -.00656196  00000-0 -85951-2 0  9992","OBJECT_NAME":"STARLINK-3112","REV_AT_EPOCH":"369","DECAY_DATE":null,"SITE":"AFETR","TLE_LINE2":"2 49421  53.2176 303.5306 0001375  56.1962  88.9174 15.60123290  3695","MEAN_ANOMALY":"88.9174","ARG_OF_PERICENTER":"56.1962","GP_ID":"192180375","EPOCH":"2021-12-21T22:00:00.999936","MEAN_ELEMENT_THEORY":"SGP4","NORAD_CAT_ID":"49421","PERIAPSIS":"386.372","OBJECT_ID":"2021-104P","MEAN_MOTION":"15.60123290","EPHEMERIS_TYPE":"0","ELEMENT_SET_NO":"999","ECCENTRICITY":"0.00013750","CLASSIFICATION_TYPE":"U","FILE":"3246784","SEMIMAJOR_AXIS":"6765.438","COUNTRY_CODE":"US"}];
